NORAD_CAT_ID,OBJECT_NAME,OBJECT_TYPE,EPOCH,MEAN_MOTION,ECCENTRICITY,INCLINATION,RA_OF_ASC_NODE,ARG_OF_PERICENTER,MEAN_ANOMALY,BSTAR,MEAN_MOTION_DOT,MEAN_MOTION_DDOT,TLE_LINE0,TLE_LINE1,TLE_LINE2,SEMIMAJOR_AXIS,PERIOD,APOGEE,PERIGEE,DECAYED
52098.0,STARLINK-3665,PAYLOAD,2023-05-13 02:42:39,15.08872744,9.17e-05,53.218,40.0469,92.5058,267.6039,-0.0001023,-1.917e-05,0.0,0 STARLINK-3665,1 52098U 22029L   23133.11295627 -.00001917  00000-0 -10230-3 0  9993,2 52098  53.2180  40.0469 0000917  92.5058 267.6039 15.08872744 64924,6917.78,95.435,540.28,539.011,0.0
52098.0,STARLINK-3665,PAYLOAD,2023-05-14 00:58:05,15.08832933,0.0001375,53.2189,35.8831,65.157,294.9565,5.1193e-05,5.27e-06,0.0,0 STARLINK-3665,1 52098U 22029L   23134.04034196  .00000527  00000-0  51193-4 0  9996,2 52098  53.2189  35.8831 0001375  65.1570 294.9565 15.08832933 65061,6917.902,95.438,540.718,538.816,0.0
52098.0,STARLINK-3665,PAYLOAD,2023-05-14 04:08:51,15.08839017,0.0001289,53.2192,35.2885,75.4734,284.6401,9.8874e-05,1.286e-05,0.0,0 STARLINK-3665,1 52098U 22029L   23134.17281686  .00001286  00000-0  98874-4 0  9998,2 52098  53.2192  35.2885 0001289  75.4734 284.6401 15.08839017 65085,6917.883,95.438,540.64,538.857,0.0
52098.0,STARLINK-3665,PAYLOAD,2023-05-14 21:38:05,15.08847143,0.0001224,53.2186,32.0203,75.7111,284.4017,1.2273e-05,-9.3e-07,0.0,0 STARLINK-3665,1 52098U 22029L   23134.90145431 -.00000093  00000-0  12273-4 0  9991,2 52098  53.2186  32.0203 0001224  75.7111 284.4017 15.08847143 65190,6917.859,95.437,540.57,538.877,0.0
52098.0,STARLINK-3665,PAYLOAD,2023-05-15 02:24:14,15.08857006,0.0001238,53.2182,31.1263,87.8852,272.2282,5.9985e-05,6.67e-06,0.0,0 STARLINK-3665,1 52098U 22029L   23135.10016505  .00000667  00000-0  59985-4 0  9990,2 52098  53.2182  31.1263 0001238  87.8852 272.2282 15.08857006 65225,6917.828,95.436,540.55,538.837,0.0
52098.0,STARLINK-3665,PAYLOAD,2023-05-15 10:21:10,15.08843085,0.0001441,53.2191,29.6396,81.8807,278.2349,-6.7066e-05,-1.355e-05,0.0,0 STARLINK-3665,1 52098U 22029L   23135.43137573 -.00001355  00000-0 -67066-4 0  9991,2 52098  53.2191  29.6396 0001441  81.8807 278.2349 15.08843085 65271,6917.871,95.437,540.733,538.739,0.0
52098.0,STARLINK-3665,PAYLOAD,2023-05-15 23:04:17,15.08821066,0.0001318,53.2185,27.2629,79.0311,281.0829,-0.00010754,-1.998e-05,0.0,0 STARLINK-3665,1 52098U 22029L   23135.96131734 -.00001998  00000-0 -10754-3 0  9996,2 52098  53.2185  27.2629 0001318  79.0311 281.0829 15.08821066 65358,6917.938,95.439,540.715,538.891,0.0
52098.0,STARLINK-3665,PAYLOAD,2023-05-16 16:33:32,15.08827875,0.0001188,53.2178,23.9895,90.5054,269.6074,-1.6188e-05,-5.45e-06,0.0,0 STARLINK-3665,1 52098U 22029L   23136.68995537 -.00000545  00000-0 -16188-4 0  9990,2 52098  53.2178  23.9895 0001188  90.5054 269.6074 15.08827875 65465,6917.917,95.438,540.604,538.961,0.0
52098.0,STARLINK-3665,PAYLOAD,2023-05-17 02:05:50,15.08843503,0.0001405,53.2186,22.2039,92.3928,267.7225,8.2838e-06,-1.56e-06,0.0,0 STARLINK-3665,1 52098U 22029L   23137.08738680 -.00000156  00000-0  82838-5 0  9992,2 52098  53.2186  22.2039 0001405  92.3928 267.7225 15.08843503 65528,6917.87,95.437,540.707,538.763,0.0
52098.0,STARLINK-3665,PAYLOAD,2023-05-17 19:35:04,15.08832331,0.000113,53.2186,18.9326,100.8276,259.2843,0.00023013,3.376e-05,0.0,0 STARLINK-3665,1 52098U 22029L   23137.81602906  .00003376  00000-0  23013-3 0  9998,2 52098  53.2186  18.9326 0001130 100.8276 259.2843 15.08832331 65636,6917.904,95.438,540.551,538.987,0.0
52098.0,STARLINK-3665,PAYLOAD,2023-05-17 22:45:49,15.0884844,0.0001054,53.2176,18.3389,89.9198,270.1914,0.00038713,5.88e-05,0.0,0 STARLINK-3665,1 52098U 22029L   23137.94849519  .00005880  00000-0  38713-3 0  9990,2 52098  53.2176  18.3389 0001054  89.9198 270.1914 15.08848440 65654,6917.855,95.437,540.449,538.99,0.0
52098.0,STARLINK-3665,PAYLOAD,2023-05-18 01:56:36,15.08859196,0.0001098,53.217,17.7452,89.011,271.1008,0.0005374,8.28e-05,0.0,0 STARLINK-3665,1 52098U 22029L   23138.08097918  .00008280  00000-0  53740-3 0  9998,2 52098  53.2170  17.7452 0001098  89.0110 271.1008 15.08859196 65672,6917.822,95.436,540.446,538.927,0.0
52098.0,STARLINK-3665,PAYLOAD,2023-05-18 16:15:04,15.08847472,8.91e-05,53.2179,15.0687,96.5546,263.5548,-1.0143e-05,-4.49e-06,0.0,0 STARLINK-3665,1 52098U 22029L   23138.67714098 -.00000449  00000-0 -10143-4 0  9990,2 52098  53.2179  15.0687 0000891  96.5546 263.5548 15.08847472 65766,6917.858,95.437,540.339,539.106,0.0
52098.0,STARLINK-3665,PAYLOAD,2023-05-18 22:36:37,15.08852154,9.41e-05,53.2174,13.8793,96.0752,264.0347,6.62e-05,7.66e-06,0.0,0 STARLINK-3665,1 52098U 22029L   23138.94209765  .00000766  00000-0  66200-4 0  9995,2 52098  53.2174  13.8793 0000941  96.0752 264.0347 15.08852154 65806,6917.843,95.437,540.359,539.057,0.0
52098.0,STARLINK-3665,PAYLOAD,2023-05-19 01:47:23,15.08856971,0.0001056,53.2176,13.2846,98.0346,262.0766,0.0001434,1.996e-05,0.0,0 STARLINK-3665,1 52098U 22029L   23139.07457499  .00001996  00000-0  14340-3 0  9992,2 52098  53.2176  13.2846 0001056  98.0346 262.0766 15.08856971 65826,6917.829,95.436,540.424,538.963,0.0
52098.0,STARLINK-3665,PAYLOAD,2023-05-19 22:27:24,15.08843815,0.0001058,53.2171,9.4187,94.0777,266.0336,-5.1489e-05,-1.107e-05,0.0,0 STARLINK-3665,1 52098U 22029L   23139.93569710 -.00001107  00000-0 -51489-4 0  9999,2 52098  53.2171   9.4187 0001058  94.0777 266.0336 15.08843815 65956,6917.869,95.437,540.466,539.002,0.0
52098.0,STARLINK-3665,PAYLOAD,2023-05-20 01:38:10,15.08844168,0.0001042,53.2171,8.824,93.9492,266.1619,4.9775e-06,-2.09e-06,0.0,0 STARLINK-3665,1 52098U 22029L   23140.06817727 -.00000209  00000-0  49775-5 0  9996,2 52098  53.2171   8.8240 0001042  93.9492 266.1619 15.08844168 65973,6917.868,95.437,540.453,539.012,0.0
52098.0,STARLINK-3665,PAYLOAD,2023-05-20 20:42:47,15.08854429,0.0001024,53.217,5.2555,94.9005,265.2104,0.00040672,6.194e-05,0.0,0 STARLINK-3665,1 52098U 22029L   23140.86305486  .00006194  00000-0  40672-3 0  9991,2 52098  53.2170   5.2555 0001024  94.9005 265.2104 15.08854429 66097,6917.836,95.437,540.41,538.993,0.0
52098.0,STARLINK-3665,PAYLOAD,2023-05-20 23:53:34,15.08862175,9.95e-05,53.2168,4.6607,100.9692,259.1412,0.00070617,0.00010975,0.0,0 STARLINK-3665,1 52098U 22029L   23140.99553260  .00010975  00000-0  70617-3 0  9994,2 52098  53.2168   4.6607 0000995 100.9692 259.1412 15.08862175 66115,6917.813,95.436,540.366,538.989,0.0
52098.0,STARLINK-3665,PAYLOAD,2023-05-21 17:22:49,15.08827883,0.000146,53.2166,1.39,74.0708,286.0445,-7.5755e-05,-1.493e-05,0.0,0 STARLINK-3665,1 52098U 22029L   23141.72418803 -.00001493  00000-0 -75755-4 0  9995,2 52098  53.2166   1.3900 0001460  74.0708 286.0445 15.08827883 66224,6917.917,95.438,540.792,538.772,0.0
52098.0,STARLINK-3665,PAYLOAD,2023-05-21 18:58:12,15.08827536,8.98e-05,53.2169,1.0929,86.8959,273.2136,-0.00010415,-1.944e-05,0.0,0 STARLINK-3665,1 52098U 22029L   23141.79042620 -.00001944  00000-0 -10415-3 0  9994,2 52098  53.2169   1.0929 0000898  86.8959 273.2136 15.08827536 66239,6917.918,95.438,540.405,539.162,0.0
52098.0,STARLINK-3665,PAYLOAD,2023-05-22 07:41:18,15.08832177,9.88e-05,53.2168,358.7132,117.2511,242.8582,0.00073394,0.0001141,0.0,0 STARLINK-3665,1 52098U 22029L   23142.32035131  .00011410  00000-0  73394-3 0  9995,2 52098  53.2168 358.7132 0000988 117.2511 242.8582 15.08832177 66312,6917.904,95.438,540.453,539.086,0.0
52098.0,STARLINK-3665,PAYLOAD,2023-05-22 17:13:37,15.08845247,9.21e-05,53.2165,356.9291,116.978,243.1306,0.00094187,0.00014736,0.0,0 STARLINK-3665,1 52098U 22029L   23142.71779083  .00014736  00000-0  94187-3 0  9996,2 52098  53.2165 356.9291 0000921 116.9780 243.1306 15.08845247 66372,6917.864,95.437,540.366,539.092,0.0
52098.0,STARLINK-3665,PAYLOAD,2023-05-22 20:24:23,15.08849984,8.8e-05,53.2165,356.3352,115.5199,244.5884,0.00097793,0.00015314,0.0,0 STARLINK-3665,1 52098U 22029L   23142.85026993  .00015314  00000-0  97793-3 0  9995,2 52098  53.2165 356.3352 0000880 115.5199 244.5884 15.08849984 66397,6917.85,95.437,540.324,539.106,0.0
52098.0,STARLINK-3665,PAYLOAD,2023-05-23 05:56:42,15.08831717,8.18e-05,53.2164,354.5521,107.8868,252.2213,0.00044462,6.794e-05,0.0,0 STARLINK-3665,1 52098U 22029L   23143.24771266  .00006794  00000-0  44462-3 0  9996,2 52098  53.2164 354.5521 0000818 107.8868 252.2213 15.08831717 66456,6917.906,95.438,540.337,539.205,0.0
52098.0,STARLINK-3665,PAYLOAD,2023-05-23 17:04:23,15.08850068,8.47e-05,53.2166,352.4692,105.3609,254.7477,0.0004725,7.242e-05,0.0,0 STARLINK-3665,1 52098U 22029L   23143.71138830  .00007242  00000-0  47250-3 0  9999,2 52098  53.2166 352.4692 0000847 105.3609 254.7477 15.08850068 66529,6917.85,95.437,540.301,539.129,0.0
52098.0,STARLINK-3665,PAYLOAD,2023-05-23 20:15:10,15.0885136,7.57e-05,53.217,351.8746,100.5053,259.6025,0.00055542,8.565e-05,0.0,0 STARLINK-3665,1 52098U 22029L   23143.84386784  .00008565  00000-0  55542-3 0  9998,2 52098  53.2170 351.8746 0000757 100.5053 259.6025 15.08851360 66548,6917.846,95.437,540.234,539.187,0.0
52098.0,STARLINK-3665,PAYLOAD,2023-05-24 15:19:47,15.08844446,8.21e-05,53.217,348.3061,95.2725,264.8361,0.00046806,7.17e-05,0.0,0 STARLINK-3665,1 52098U 22029L   23144.63874942  .00007170  00000-0  46806-3 0  9998,2 52098  53.2170 348.3061 0000821  95.2725 264.8361 15.08844446 66668,6917.867,95.437,540.3,539.164,0.0
52098.0,STARLINK-3665,PAYLOAD,2023-05-25 18:21:20,15.08855773,8.04e-05,53.2175,343.2506,79.0607,281.0475,0.00061736,9.555e-05,0.0,0 STARLINK-3665,1 52098U 22029L   23145.76482494  .00009555  00000-0  61736-3 0  9998,2 52098  53.2175 343.2506 0000804  79.0607 281.0475 15.08855773 66832,6917.832,95.437,540.253,539.141,0.0
52098.0,STARLINK-3665,PAYLOAD,2023-05-26 13:25:58,15.0884249,0.0001013,53.2179,339.6869,82.454,277.6567,6.7309e-05,7.84e-06,0.0,0 STARLINK-3665,1 52098U 22029L   23146.55970616  .00000784  00000-0  67309-4 0  9992,2 52098  53.2179 339.6869 0001013  82.4540 277.6567 15.08842490 66952,6917.873,95.437,540.439,539.037,0.0
